{
  "type": "FeatureCollection",
  "features": [
    {
      "type": "Feature",
      "properties": {
        "norad_id": 33924,
        "name": "COSMOS 2251 DEB",
        "group": "cosmos-2251-debris",
        "lat": 71.64227432472852,
        "lon": -29.33022520578337,
        "alt_km": 1272.137538386186,
        "timestamp": "2025-12-12T16:50:33.539454+00:00",
        "meta_object_name": "COSMOS 2251 DEB",
        "meta_object_id": "1993-036ED",
        "meta_epoch": "2025-12-12T05:46:20.355168",
        "meta_mean_motion": 13.50224081,
        "meta_eccentricity": 0.04040441,
        "meta_inclination": 73.9136,
        "meta_ra_of_asc_node": 271.0038,
        "meta_arg_of_pericenter": 306.5441,
        "meta_mean_anomaly": 49.9093,
        "meta_ephemeris_type": 0,
        "meta_classification_type": "U",
        "meta_norad_cat_id": 33924,
        "meta_element_set_no": 999,
        "meta_rev_at_epoch": 82732,
        "meta_bstar": 0.0013304718,
        "meta_mean_motion_dot": 1.387e-05,
        "meta_mean_motion_ddot": 0,
        "tle_line1": "1 33924U 93036ED  25346.24051337  .00001387  00000+0  13305-2 0  9999",
        "tle_line2": "2 33924  73.9136 271.0038 0404044 306.5441  49.9093 13.50224081827324"
      },
      "geometry": {
        "type": "Point",
        "coordinates": [
          -29.33022520578337,
          71.64227432472852
        ]
      }
    },
    {
      "type": "Feature",
      "properties": {
        "norad_id": 33928,
        "name": "COSMOS 2251 DEB",
        "group": "cosmos-2251-debris",
        "lat": -21.445780164863784,
        "lon": 46.13382740154992,
        "alt_km": 695.9137377549205,
        "timestamp": "2025-12-12T16:50:33.539464+00:00",
        "meta_object_name": "COSMOS 2251 DEB",
        "meta_object_id": "1993-036EH",
        "meta_epoch": "2025-12-12T06:59:29.998752",
        "meta_mean_motion": 14.47403693,
        "meta_eccentricity": 0.00614303,
        "meta_inclination": 73.9261,
        "meta_ra_of_asc_node": 53.4096,
        "meta_arg_of_pericenter": 347.621,
        "meta_mean_anomaly": 12.3435,
        "meta_ephemeris_type": 0,
        "meta_classification_type": "U",
        "meta_norad_cat_id": 33928,
        "meta_element_set_no": 999,
        "meta_rev_at_epoch": 88638,
        "meta_bstar": 0.00038050116,
        "meta_mean_motion_dot": 1.4e-05,
        "meta_mean_motion_ddot": 0,
        "tle_line1": "1 33928U 93036EH  25346.29131943  .00001400  00000+0  38050-3 0  9991",
        "tle_line2": "2 33928  73.9261  53.4096 0061430 347.6210  12.3435 14.47403693886381"
      },
      "geometry": {
        "type": "Point",
        "coordinates": [
          46.13382740154992,
          -21.445780164863784
        ]
      }
    },
    {
      "type": "Feature",
      "properties": {
        "norad_id": 33932,
        "name": "COSMOS 2251 DEB",
        "group": "cosmos-2251-debris",
        "lat": 59.01443519559205,
        "lon": 107.51662316710903,
        "alt_km": 754.1011421799312,
        "timestamp": "2025-12-12T16:50:33.539475+00:00",
        "meta_object_name": "COSMOS 2251 DEB",
        "meta_object_id": "1993-036EM",
        "meta_epoch": "2025-12-12T06:17:30.086592",
        "meta_mean_motion": 14.38756333,
        "meta_eccentricity": 0.00352735,
        "meta_inclination": 74.0346,
        "meta_ra_of_asc_node": 316.7983,
        "meta_arg_of_pericenter": 33.1362,
        "meta_mean_anomaly": 327.1991,
        "meta_ephemeris_type": 0,
        "meta_classification_type": "U",
        "meta_norad_cat_id": 33932,
        "meta_element_set_no": 999,
        "meta_rev_at_epoch": 87991,
        "meta_bstar": 0.00081160831,
        "meta_mean_motion_dot": 2.485e-05,
        "meta_mean_motion_ddot": 0,
        "tle_line1": "1 33932U 93036EM  25346.26215378  .00002485  00000+0  81161-3 0  9993",
        "tle_line2": "2 33932  74.0346 316.7983 0035273  33.1362 327.1991 14.38756333879910"
      },
      "geometry": {
        "type": "Point",
        "coordinates": [
          107.51662316710903,
          59.01443519559205
        ]
      }
    },
    {
      "type": "Feature",
      "properties": {
        "norad_id": 33933,
        "name": "COSMOS 2251 DEB",
        "group": "cosmos-2251-debris",
        "lat": -33.75000067987016,
        "lon": 49.218777490898034,
        "alt_km": 797.6979183429366,
        "timestamp": "2025-12-12T16:50:33.539486+00:00",
        "meta_object_name": "COSMOS 2251 DEB",
        "meta_object_id": "1993-036EN",
        "meta_epoch": "2025-12-12T06:57:26.283456",
        "meta_mean_motion": 14.33488011,
        "meta_eccentricity": 0.00707913,
        "meta_inclination": 74.0894,
        "meta_ra_of_asc_node": 60.9565,
        "meta_arg_of_pericenter": 69.5045,
        "meta_mean_anomaly": 291.3686,
        "meta_ephemeris_type": 0,
        "meta_classification_type": "U",
        "meta_norad_cat_id": 33933,
        "meta_element_set_no": 999,
        "meta_rev_at_epoch": 87778,
        "meta_bstar": 0.00042909955,
        "meta_mean_motion_dot": 1.195e-05,
        "meta_mean_motion_ddot": 0,
        "tle_line1": "1 33933U 93036EN  25346.28988754  .00001195  00000+0  42910-3 0  9997",
        "tle_line2": "2 33933  74.0894  60.9565 0070791  69.5045 291.3686 14.33488011877784"
      },
      "geometry": {
        "type": "Point",
        "coordinates": [
          49.218777490898034,
          -33.75000067987016
        ]
      }
    },
    {
      "type": "Feature",
      "properties": {
        "norad_id": 33934,
        "name": "COSMOS 2251 DEB",
        "group": "cosmos-2251-debris",
        "lat": 70.4136442797991,
        "lon": 154.19731669987752,
        "alt_km": 698.0527030587073,
        "timestamp": "2025-12-12T16:50:33.539496+00:00",
        "meta_object_name": "COSMOS 2251 DEB",
        "meta_object_id": "1993-036EP",
        "meta_epoch": "2025-12-12T06:36:36.237888",
        "meta_mean_motion": 14.59104297,
        "meta_eccentricity": 0.00156851,
        "meta_inclination": 74.0378,
        "meta_ra_of_asc_node": 101.4563,
        "meta_arg_of_pericenter": 225.2485,
        "meta_mean_anomaly": 134.7405,
        "meta_ephemeris_type": 0,
        "meta_classification_type": "U",
        "meta_norad_cat_id": 33934,
        "meta_element_set_no": 999,
        "meta_rev_at_epoch": 88732,
        "meta_bstar": 0.0015635247,
        "meta_mean_motion_dot": 7.349e-05,
        "meta_mean_motion_ddot": 0,
        "tle_line1": "1 33934U 93036EP  25346.27541942  .00007349  00000+0  15635-2 0  9991",
        "tle_line2": "2 33934  74.0378 101.4563 0015685 225.2485 134.7405 14.59104297887320"
      },
      "geometry": {
        "type": "Point",
        "coordinates": [
          154.19731669987752,
          70.4136442797991
        ]
      }
    },
    {
      "type": "Feature",
      "properties": {
        "norad_id": 33936,
        "name": "COSMOS 2251 DEB",
        "group": "cosmos-2251-debris",
        "lat": 6.150680868906139,
        "lon": 39.32649768364834,
        "alt_km": 713.4859997031626,
        "timestamp": "2025-12-12T16:50:33.539507+00:00",
        "meta_object_name": "COSMOS 2251 DEB",
        "meta_object_id": "1993-036ER",
        "meta_epoch": "2025-12-12T06:56:52.852704",
        "meta_mean_motion": 14.60268593,
        "meta_eccentricity": 0.0027593,
        "meta_inclination": 74.019,
        "meta_ra_of_asc_node": 38.3443,
        "meta_arg_of_pericenter": 193.7679,
        "meta_mean_anomaly": 166.2738,
        "meta_ephemeris_type": 0,
        "meta_classification_type": "U",
        "meta_norad_cat_id": 33936,
        "meta_element_set_no": 999,
        "meta_rev_at_epoch": 88883,
        "meta_bstar": 0.0011122852,
        "meta_mean_motion_dot": 5.372e-05,
        "meta_mean_motion_ddot": 0,
        "tle_line1": "1 33936U 93036ER  25346.28950061  .00005372  00000+0  11123-2 0  9992",
        "tle_line2": "2 33936  74.0190  38.3443 0027593 193.7679 166.2738 14.60268593888832"
      },
      "geometry": {
        "type": "Point",
        "coordinates": [
          39.32649768364834,
          6.150680868906139
        ]
      }
    },
    {
      "type": "Feature",
      "properties": {
        "norad_id": 33938,
        "name": "COSMOS 2251 DEB",
        "group": "cosmos-2251-debris",
        "lat": -39.9155527477871,
        "lon": 41.094814055933,
        "alt_km": 737.6946558758846,
        "timestamp": "2025-12-12T16:50:33.539518+00:00",
        "meta_object_name": "COSMOS 2251 DEB",
        "meta_object_id": "1993-036ET",
        "meta_epoch": "2025-12-12T01:25:35.164992",
        "meta_mean_motion": 14.46790384,
        "meta_eccentricity": 0.00168557,
        "meta_inclination": 74.0451,
        "meta_ra_of_asc_node": 208.4465,
        "meta_arg_of_pericenter": 290.6684,
        "meta_mean_anomaly": 187.036,
        "meta_ephemeris_type": 0,
        "meta_classification_type": "U",
        "meta_norad_cat_id": 33938,
        "meta_element_set_no": 999,
        "meta_rev_at_epoch": 88390,
        "meta_bstar": 0.00067292147,
        "meta_mean_motion_dot": 2.415e-05,
        "meta_mean_motion_ddot": 0,
        "tle_line1": "1 33938U 93036ET  25346.05943478  .00002415  00000+0  67292-3 0  9997",
        "tle_line2": "2 33938  74.0451 208.4465 0016855 290.6684 187.0360 14.46790384883907"
      },
      "geometry": {
        "type": "Point",
        "coordinates": [
          41.094814055933,
          -39.9155527477871
        ]
      }
    }
  ]
}